[
  {
    "OBJECT_NAME": "STARLINK-34523",
    "OBJECT_ID": "25133D",
    "EPOCH": "2025-11-11T05:56:36.451968",
    "MEAN_MOTION": 15.39625708,
    "ECCENTRICITY": 0.0001162,
    "INCLINATION": 53.1614,
    "RA_OF_ASC_NODE": 307.7167,
    "ARG_OF_PERICENTER": 83.7974,
    "MEAN_ANOMALY": 276.3163,
    "EPHEMERIS_TYPE": 0,
    "CLASSIFICATION_TYPE": "U",
    "NORAD_CAT_ID": 64475,
    "ELEMENT_SET_NO": 999,
    "REV_AT_EPOCH": 2302,
    "BSTAR": 0.0014529,
    "MEAN_MOTION_DOT": 0.00058172,
    "MEAN_MOTION_DDOT": 0.0,
    "TLE_LINE1": "1 64475U 25133D   25315.24764412  .00058172  00000+0  14529-2 0  9991",
    "TLE_LINE2": "2 64475  53.1614 307.7167 0001162  83.7974 276.3163 15.39625708 23028",
    "COMMENT": "Grouped by shell and plane from TLE"
  },
  {
    "OBJECT_NAME": "STARLINK-34496",
    "OBJECT_ID": "25133E",
    "EPOCH": "2025-11-11T05:56:07.395648",
    "MEAN_MOTION": 15.39639937,
    "ECCENTRICITY": 0.0001356,
    "INCLINATION": 53.1618,
    "RA_OF_ASC_NODE": 307.7156,
    "ARG_OF_PERICENTER": 84.3599,
    "MEAN_ANOMALY": 275.7561,
    "EPHEMERIS_TYPE": 0,
    "CLASSIFICATION_TYPE": "U",
    "NORAD_CAT_ID": 64476,
    "ELEMENT_SET_NO": 999,
    "REV_AT_EPOCH": 2304,
    "BSTAR": 0.0016128000000000002,
    "MEAN_MOTION_DOT": 0.00064703,
    "MEAN_MOTION_DDOT": 0.0,
    "TLE_LINE1": "1 64476U 25133E   25315.24730782  .00064703  00000+0  16128-2 0  9999",
    "TLE_LINE2": "2 64476  53.1618 307.7156 0001356  84.3599 275.7561 15.39639937 23042",
    "COMMENT": "Grouped by shell and plane from TLE"
  },
  {
    "OBJECT_NAME": "STARLINK-34375",
    "OBJECT_ID": "25133F",
    "EPOCH": "2025-11-11T07:23:23.930304",
    "MEAN_MOTION": 15.3964494,
    "ECCENTRICITY": 0.0001054,
    "INCLINATION": 53.1611,
    "RA_OF_ASC_NODE": 307.3812,
    "ARG_OF_PERICENTER": 87.4543,
    "MEAN_ANOMALY": 272.6583,
    "EPHEMERIS_TYPE": 0,
    "CLASSIFICATION_TYPE": "U",
    "NORAD_CAT_ID": 64477,
    "ELEMENT_SET_NO": 999,
    "REV_AT_EPOCH": 2305,
    "BSTAR": 0.0018075,
    "MEAN_MOTION_DOT": 0.00072651,
    "MEAN_MOTION_DDOT": 0.0,
    "TLE_LINE1": "1 64477U 25133F   25315.30791586  .00072651  00000+0  18075-2 0  9990",
    "TLE_LINE2": "2 64477  53.1611 307.3812 0001054  87.4543 272.6583 15.39644940 23050",
    "COMMENT": "Grouped by shell and plane from TLE"
  },
  {
    "OBJECT_NAME": "STARLINK-34490",
    "OBJECT_ID": "25133G",
    "EPOCH": "2025-11-11T07:16:42.739680",
    "MEAN_MOTION": 15.39629535,
    "ECCENTRICITY": 0.0001282,
    "INCLINATION": 53.1613,
    "RA_OF_ASC_NODE": 307.3523,
    "ARG_OF_PERICENTER": 103.6147,
    "MEAN_ANOMALY": 256.5001,
    "EPHEMERIS_TYPE": 0,
    "CLASSIFICATION_TYPE": "U",
    "NORAD_CAT_ID": 64478,
    "ELEMENT_SET_NO": 999,
    "REV_AT_EPOCH": 2305,
    "BSTAR": 0.0014123,
    "MEAN_MOTION_DOT": 0.00056531,
    "MEAN_MOTION_DDOT": 0.0,
    "TLE_LINE1": "1 64478U 25133G   25315.30327245  .00056531  00000+0  14123-2 0  9997",
    "TLE_LINE2": "2 64478  53.1613 307.3523 0001282 103.6147 256.5001 15.39629535 23055",
    "COMMENT": "Grouped by shell and plane from TLE"
  },
  {
    "OBJECT_NAME": "STARLINK-34528",
    "OBJECT_ID": "25133H",
    "EPOCH": "2025-11-11T05:49:26.414976",
    "MEAN_MOTION": 15.39628316,
    "ECCENTRICITY": 0.0001405,
    "INCLINATION": 53.1619,
    "RA_OF_ASC_NODE": 307.6854,
    "ARG_OF_PERICENTER": 98.6112,
    "MEAN_ANOMALY": 261.5052,
    "EPHEMERIS_TYPE": 0,
    "CLASSIFICATION_TYPE": "U",
    "NORAD_CAT_ID": 64479,
    "ELEMENT_SET_NO": 999,
    "REV_AT_EPOCH": 2302,
    "BSTAR": 0.0025171,
    "MEAN_MOTION_DOT": 0.00101664,
    "MEAN_MOTION_DDOT": 0.0,
    "TLE_LINE1": "1 64479U 25133H   25315.24266684  .00101664  00000+0  25171-2 0  9993",
    "TLE_LINE2": "2 64479  53.1619 307.6854 0001405  98.6112 261.5052 15.39628316 23029",
    "COMMENT": "Grouped by shell and plane from TLE"
  },
  {
    "OBJECT_NAME": "STARLINK-34518",
    "OBJECT_ID": "25133J",
    "EPOCH": "2025-11-11T07:16:13.898496",
    "MEAN_MOTION": 15.39633719,
    "ECCENTRICITY": 0.0001725,
    "INCLINATION": 53.1619,
    "RA_OF_ASC_NODE": 307.3497,
    "ARG_OF_PERICENTER": 61.3066,
    "MEAN_ANOMALY": 298.8112,
    "EPHEMERIS_TYPE": 0,
    "CLASSIFICATION_TYPE": "U",
    "NORAD_CAT_ID": 64480,
    "ELEMENT_SET_NO": 999,
    "REV_AT_EPOCH": 2289,
    "BSTAR": 0.0014023,
    "MEAN_MOTION_DOT": 0.0005613,
    "MEAN_MOTION_DDOT": 0.0,
    "TLE_LINE1": "1 64480U 25133J   25315.30293864  .00056130  00000+0  14023-2 0  9993",
    "TLE_LINE2": "2 64480  53.1619 307.3497 0001725  61.3066 298.8112 15.39633719 22898",
    "COMMENT": "Grouped by shell and plane from TLE"
  },
  {
    "OBJECT_NAME": "STARLINK-34526",
    "OBJECT_ID": "25133K",
    "EPOCH": "2025-11-11T07:10:01.356384",
    "MEAN_MOTION": 15.39630542,
    "ECCENTRICITY": 0.0001206,
    "INCLINATION": 53.1601,
    "RA_OF_ASC_NODE": 307.3237,
    "ARG_OF_PERICENTER": 113.7223,
    "MEAN_ANOMALY": 246.3909,
    "EPHEMERIS_TYPE": 0,
    "CLASSIFICATION_TYPE": "U",
    "NORAD_CAT_ID": 64481,
    "ELEMENT_SET_NO": 999,
    "REV_AT_EPOCH": 2294,
    "BSTAR": 0.0011716,
    "MEAN_MOTION_DOT": 0.00046769,
    "MEAN_MOTION_DDOT": 0.0,
    "TLE_LINE1": "1 64481U 25133K   25315.29862681  .00046769  00000+0  11716-2 0  9994",
    "TLE_LINE2": "2 64481  53.1601 307.3237 0001206 113.7223 246.3909 15.39630542 22942",
    "COMMENT": "Grouped by shell and plane from TLE"
  },
  {
    "OBJECT_NAME": "STARLINK-34527",
    "OBJECT_ID": "25133L",
    "EPOCH": "2025-11-11T07:09:32.637888",
    "MEAN_MOTION": 15.39631022,
    "ECCENTRICITY": 0.0001389,
    "INCLINATION": 53.1615,
    "RA_OF_ASC_NODE": 307.3194,
    "ARG_OF_PERICENTER": 100.9427,
    "MEAN_ANOMALY": 259.1734,
    "EPHEMERIS_TYPE": 0,
    "CLASSIFICATION_TYPE": "U",
    "NORAD_CAT_ID": 64482,
    "ELEMENT_SET_NO": 999,
    "REV_AT_EPOCH": 2305,
    "BSTAR": 0.0020826,
    "MEAN_MOTION_DOT": 0.00083856,
    "MEAN_MOTION_DDOT": 0.0,
    "TLE_LINE1": "1 64482U 25133L   25315.29829442  .00083856  00000+0  20826-2 0  9993",
    "TLE_LINE2": "2 64482  53.1615 307.3194 0001389 100.9427 259.1734 15.39631022 23051",
    "COMMENT": "Grouped by shell and plane from TLE"
  },
  {
    "OBJECT_NAME": "STARLINK-34420",
    "OBJECT_ID": "25133M",
    "EPOCH": "2025-11-11T07:03:20.388672",
    "MEAN_MOTION": 15.39616874,
    "ECCENTRICITY": 0.0001496,
    "INCLINATION": 53.1611,
    "RA_OF_ASC_NODE": 307.2929,
    "ARG_OF_PERICENTER": 86.0974,
    "MEAN_ANOMALY": 274.0202,
    "EPHEMERIS_TYPE": 0,
    "CLASSIFICATION_TYPE": "U",
    "NORAD_CAT_ID": 64483,
    "ELEMENT_SET_NO": 999,
    "REV_AT_EPOCH": 2305,
    "BSTAR": 0.0025999,
    "MEAN_MOTION_DOT": 0.00105029,
    "MEAN_MOTION_DDOT": 0.0,
    "TLE_LINE1": "1 64483U 25133M   25315.29398598  .00105029  00000+0  25999-2 0  9990",
    "TLE_LINE2": "2 64483  53.1611 307.2929 0001496  86.0974 274.0202 15.39616874 23057",
    "COMMENT": "Grouped by shell and plane from TLE"
  },
  {
    "OBJECT_NAME": "STARLINK-34509",
    "OBJECT_ID": "25133N",
    "EPOCH": "2025-11-11T07:02:51.464544",
    "MEAN_MOTION": 15.39636832,
    "ECCENTRICITY": 0.0001314,
    "INCLINATION": 53.1614,
    "RA_OF_ASC_NODE": 307.291,
    "ARG_OF_PERICENTER": 80.3579,
    "MEAN_ANOMALY": 279.7575,
    "EPHEMERIS_TYPE": 0,
    "CLASSIFICATION_TYPE": "U",
    "NORAD_CAT_ID": 64484,
    "ELEMENT_SET_NO": 999,
    "REV_AT_EPOCH": 2305,
    "BSTAR": 0.0021094,
    "MEAN_MOTION_DOT": 0.00084965,
    "MEAN_MOTION_DDOT": 0.0,
    "TLE_LINE1": "1 64484U 25133N   25315.29365121  .00084965  00000+0  21094-2 0  9994",
    "TLE_LINE2": "2 64484  53.1614 307.2910 0001314  80.3579 279.7575 15.39636832 23059",
    "COMMENT": "Grouped by shell and plane from TLE"
  },
  {
    "OBJECT_NAME": "STARLINK-34409",
    "OBJECT_ID": "25133P",
    "EPOCH": "2025-11-11T06:56:39.003648",
    "MEAN_MOTION": 15.39660389,
    "ECCENTRICITY": 0.00012,
    "INCLINATION": 53.1612,
    "RA_OF_ASC_NODE": 307.2621,
    "ARG_OF_PERICENTER": 122.2281,
    "MEAN_ANOMALY": 237.884,
    "EPHEMERIS_TYPE": 0,
    "CLASSIFICATION_TYPE": "U",
    "NORAD_CAT_ID": 64485,
    "ELEMENT_SET_NO": 999,
    "REV_AT_EPOCH": 2305,
    "BSTAR": 0.0019829,
    "MEAN_MOTION_DOT": 0.00079855,
    "MEAN_MOTION_DDOT": 0.0,
    "TLE_LINE1": "1 64485U 25133P   25315.28934032  .00079855  00000+0  19829-2 0  9992",
    "TLE_LINE2": "2 64485  53.1612 307.2621 0001200 122.2281 237.8840 15.39660389 23051",
    "COMMENT": "Grouped by shell and plane from TLE"
  },
  {
    "OBJECT_NAME": "STARLINK-34520",
    "OBJECT_ID": "25133Q",
    "EPOCH": "2025-11-11T03:49:12.791712",
    "MEAN_MOTION": 15.39629315,
    "ECCENTRICITY": 0.0001218,
    "INCLINATION": 53.1601,
    "RA_OF_ASC_NODE": 307.8742,
    "ARG_OF_PERICENTER": 21.2624,
    "MEAN_ANOMALY": 338.8431,
    "EPHEMERIS_TYPE": 0,
    "CLASSIFICATION_TYPE": "U",
    "NORAD_CAT_ID": 64486,
    "ELEMENT_SET_NO": 999,
    "REV_AT_EPOCH": 2303,
    "BSTAR": 0.0009503500000000001,
    "MEAN_MOTION_DOT": 0.00037814,
    "MEAN_MOTION_DDOT": 0.0,
    "TLE_LINE1": "1 64486U 25133Q   25315.15917583  .00037814  00000+0  95035-3 0  9994",
    "TLE_LINE2": "2 64486  53.1601 307.8742 0001218  21.2624 338.8431 15.39629315 23038",
    "COMMENT": "Grouped by shell and plane from TLE"
  },
  {
    "OBJECT_NAME": "STARLINK-34477",
    "OBJECT_ID": "25133R",
    "EPOCH": "2025-11-11T05:16:29.213184",
    "MEAN_MOTION": 15.39630187,
    "ECCENTRICITY": 0.0001356,
    "INCLINATION": 53.1609,
    "RA_OF_ASC_NODE": 307.5395,
    "ARG_OF_PERICENTER": 77.2297,
    "MEAN_ANOMALY": 282.8859,
    "EPHEMERIS_TYPE": 0,
    "CLASSIFICATION_TYPE": "U",
    "NORAD_CAT_ID": 64487,
    "ELEMENT_SET_NO": 999,
    "REV_AT_EPOCH": 2303,
    "BSTAR": 0.0013844999999999999,
    "MEAN_MOTION_DOT": 0.00055399,
    "MEAN_MOTION_DDOT": 0.0,
    "TLE_LINE1": "1 64487U 25133R   25315.21978256  .00055399  00000+0  13845-2 0  9992",
    "TLE_LINE2": "2 64487  53.1609 307.5395 0001356  77.2297 282.8859 15.39630187 23039",
    "COMMENT": "Grouped by shell and plane from TLE"
  }
]